start=new Date('2022-12-21T00:00:00.000Z').valueOf();
sats=[{"SEMIMAJOR_AXIS":"6925.351","OBJECT_ID":"2021-024AH","REV_AT_EPOCH":"9828","MEAN_ELEMENT_THEORY":"SGP4","ARG_OF_PERICENTER":"73.6408","SITE":"AFETR","COUNTRY_CODE":"US","RCS_SIZE":"LARGE","PERIOD":"95.592","TLE_LINE1":"1 48008U 21024AH  22354.81132086  .00004464  00000-0  31841-3 0  9992","PERIAPSIS":"546.178","INCLINATION":"53.0528","APOAPSIS":"548.255","ECCENTRICITY":"0.00015000","ELEMENT_SET_NO":"999","OBJECT_NAME":"STARLINK-2271","OBJECT_TYPE":"PAYLOAD","CLASSIFICATION_TYPE":"U","DECAY_DATE":null,"RA_OF_ASC_NODE":"115.8641","CENTER_NAME":"EARTH","MEAN_MOTION_DDOT":"0.0000000000000","TLE_LINE2":"2 48008  53.0528 115.8641 0001500  73.6408 286.4746 15.06399058 98285","EPHEMERIS_TYPE":"0","BSTAR":"0.00031841000000","MEAN_MOTION_DOT":"0.00004464","EPOCH":"2022-12-20T19:28:18.122304","MEAN_ANOMALY":"286.4746","REF_FRAME":"TEME","MEAN_MOTION":"15.06399058","NORAD_CAT_ID":"48008","LAUNCH_DATE":"2021-03-24","GP_ID":"221041964","TIME_SYSTEM":"UTC","FILE":"3714011"},{"MEAN_MOTION_DDOT":"0.0000000000000","CENTER_NAME":"EARTH","TLE_LINE2":"2 48009  53.0541 190.8993 0001613  59.7882 300.3266 15.06393330 97234","EPOCH":"2022-12-20T19:17:02.960736","MEAN_MOTION_DOT":"0.00000660","BSTAR":"0.00006319400000","EPHEMERIS_TYPE":"0","MEAN_ANOMALY":"300.3266","DECAY_DATE":null,"RA_OF_ASC_NODE":"190.8993","LAUNCH_DATE":"2021-03-24","NORAD_CAT_ID":"48009","GP_ID":"221041974","TIME_SYSTEM":"UTC","FILE":"3714014","REF_FRAME":"TEME","MEAN_MOTION":"15.06393330","SITE":"AFETR","ARG_OF_PERICENTER":"59.7882","RCS_SIZE":"LARGE","COUNTRY_CODE":"US","TLE_LINE1":"1 48009U 21024AJ  22354.80350649  .00000660  00000-0  63194-4 0  9990","PERIOD":"95.593","SEMIMAJOR_AXIS":"6925.369","OBJECT_ID":"2021-024AJ","REV_AT_EPOCH":"9723","MEAN_ELEMENT_THEORY":"SGP4","OBJECT_NAME":"STARLINK-2153","ECCENTRICITY":"0.00016130","ELEMENT_SET_NO":"999","OBJECT_TYPE":"PAYLOAD","CLASSIFICATION_TYPE":"U","PERIAPSIS":"546.117","APOAPSIS":"548.351","INCLINATION":"53.0541"},{"DECAY_DATE":null,"RA_OF_ASC_NODE":"210.8359","EPHEMERIS_TYPE":"0","MEAN_MOTION_DOT":"0.00001464","BSTAR":"0.00011715000000","EPOCH":"2022-12-20T19:35:36.756960","MEAN_ANOMALY":"277.8333","CENTER_NAME":"EARTH","MEAN_MOTION_DDOT":"0.0000000000000","TLE_LINE2":"2 48010  53.0550 210.8359 0001302  82.2804 277.8333 15.06403265 96944","MEAN_MOTION":"15.06403265","REF_FRAME":"TEME","FILE":"3714014","TIME_SYSTEM":"UTC","LAUNCH_DATE":"2021-03-24","NORAD_CAT_ID":"48010","GP_ID":"221041929","MEAN_ELEMENT_THEORY":"SGP4","SEMIMAJOR_AXIS":"6925.339","OBJECT_ID":"2021-024AK","REV_AT_EPOCH":"9694","COUNTRY_CODE":"US","RCS_SIZE":"LARGE","PERIOD":"95.592","TLE_LINE1":"1 48010U 21024AK  22354.81639765  .00001464  00000-0  11715-3 0  9996","ARG_OF_PERICENTER":"82.2804","SITE":"AFETR","PERIAPSIS":"546.302","INCLINATION":"53.0550","APOAPSIS":"548.105","CLASSIFICATION_TYPE":"U","ELEMENT_SET_NO":"999","ECCENTRICITY":"0.00013020","OBJECT_NAME":"STARLINK-2226","OBJECT_TYPE":"PAYLOAD"},{"GP_ID":"221026514","LAUNCH_DATE":"2021-03-24","NORAD_CAT_ID":"48011","TIME_SYSTEM":"UTC","FILE":"3713130","REF_FRAME":"TEME","MEAN_MOTION":"15.06399428","TLE_LINE2":"2 48011  53.0530 191.9250 0001667  60.5299 299.5856 15.06399428 97726","CENTER_NAME":"EARTH","MEAN_MOTION_DDOT":"0.0000000000000","MEAN_ANOMALY":"299.5856","EPHEMERIS_TYPE":"0","EPOCH":"2022-12-20T13:46:36.357024","MEAN_MOTION_DOT":"0.00000714","BSTAR":"0.00006683700000","RA_OF_ASC_NODE":"191.9250","DECAY_DATE":null,"OBJECT_TYPE":"PAYLOAD","ECCENTRICITY":"0.00016670","ELEMENT_SET_NO":"999","OBJECT_NAME":"STARLINK-2272","CLASSIFICATION_TYPE":"U","INCLINATION":"53.0530","APOAPSIS":"548.370","PERIAPSIS":"546.061","SITE":"AFETR","ARG_OF_PERICENTER":"60.5299","PERIOD":"95.592","TLE_LINE1":"1 48011U 21024AL  22354.57403191  .00000714  00000-0  66837-4 0  9995","COUNTRY_CODE":"US","RCS_SIZE":"LARGE","REV_AT_EPOCH":"9772","OBJECT_ID":"2021-024AL","SEMIMAJOR_AXIS":"6925.350","MEAN_ELEMENT_THEORY":"SGP4"},{"RCS_SIZE":"LARGE","COUNTRY_CODE":"US","TLE_LINE1":"1 48012U 21024AM  22354.44157297  .00051046  00000-0  71315-3 0  9995","PERIOD":"92.523","ARG_OF_PERICENTER":"331.0568","SITE":"AFETR","MEAN_ELEMENT_THEORY":"SGP4","SEMIMAJOR_AXIS":"6776.308","OBJECT_ID":"2021-024AM","REV_AT_EPOCH":"9926","CLASSIFICATION_TYPE":"U","OBJECT_NAME":"STARLINK-2216","ELEMENT_SET_NO":"999","ECCENTRICITY":"0.00029390","OBJECT_TYPE":"PAYLOAD","PERIAPSIS":"396.181","APOAPSIS":"400.164","INCLINATION":"53.0504","MEAN_MOTION_DOT":"0.00051046","EPOCH":"2022-12-20T10:35:51.904608","BSTAR":"0.00071315000000","EPHEMERIS_TYPE":"0","MEAN_ANOMALY":"29.0279","MEAN_MOTION_DDOT":"0.0000000000000","CENTER_NAME":"EARTH","TLE_LINE2":"2 48012  53.0504  82.0231 0002939 331.0568  29.0279 15.56370760 99264","DECAY_DATE":null,"RA_OF_ASC_NODE":"82.0231","TIME_SYSTEM":"UTC","FILE":"3713130","LAUNCH_DATE":"2021-03-24","NORAD_CAT_ID":"48012","GP_ID":"221025262","MEAN_MOTION":"15.56370760","REF_FRAME":"TEME"},{"TLE_LINE1":"1 48013U 21024AN  22354.53029105  .00003570  00000-0  25842-3 0  9995","PERIOD":"95.592","COUNTRY_CODE":"US","RCS_SIZE":"LARGE","ARG_OF_PERICENTER":"74.7795","SITE":"AFETR","MEAN_ELEMENT_THEORY":"SGP4","REV_AT_EPOCH":"9787","OBJECT_ID":"2021-024AN","SEMIMAJOR_AXIS":"6925.332","CLASSIFICATION_TYPE":"U","OBJECT_TYPE":"PAYLOAD","ELEMENT_SET_NO":"999","ECCENTRICITY":"0.00013970","OBJECT_NAME":"STARLINK-2243","INCLINATION":"53.0522","APOAPSIS":"548.164","PERIAPSIS":"546.229","MEAN_ANOMALY":"285.3349","EPHEMERIS_TYPE":"0","BSTAR":"0.00025842000000","MEAN_MOTION_DOT":"0.00003570","EPOCH":"2022-12-20T12:43:37.146720","TLE_LINE2":"2 48013  53.0522 177.1204 0001397  74.7795 285.3349 15.06405532 97872","CENTER_NAME":"EARTH","MEAN_MOTION_DDOT":"0.0000000000000","RA_OF_ASC_NODE":"177.1204","DECAY_DATE":null,"FILE":"3713130","TIME_SYSTEM":"UTC","GP_ID":"221025512","LAUNCH_DATE":"2021-03-24","NORAD_CAT_ID":"48013","MEAN_MOTION":"15.06405532","REF_FRAME":"TEME"},{"OBJECT_NAME":"STARLINK-2283","ELEMENT_SET_NO":"999","ECCENTRICITY":"0.00020390","OBJECT_TYPE":"PAYLOAD","CLASSIFICATION_TYPE":"U","PERIAPSIS":"545.804","APOAPSIS":"548.628","INCLINATION":"53.0557","SITE":"AFETR","ARG_OF_PERICENTER":"50.7489","RCS_SIZE":"LARGE","COUNTRY_CODE":"US","TLE_LINE1":"1 48014U 21024AP  22354.81181231  .00000286  00000-0  38121-4 0  9992","PERIOD":"95.592","SEMIMAJOR_AXIS":"6925.351","OBJECT_ID":"2021-024AP","REV_AT_EPOCH":"9792","MEAN_ELEMENT_THEORY":"SGP4","LAUNCH_DATE":"2021-03-24","NORAD_CAT_ID":"48014","GP_ID":"221041927","TIME_SYSTEM":"UTC","FILE":"3714014","REF_FRAME":"TEME","MEAN_MOTION":"15.06399136","MEAN_MOTION_DDOT":"0.0000000000000","CENTER_NAME":"EARTH","TLE_LINE2":"2 48014  53.0557 141.0240 0002039  50.7489 309.3681 15.06399136 97923","BSTAR":"0.00003812100000","MEAN_MOTION_DOT":"0.00000286","EPOCH":"2022-12-20T19:29:00.583584","EPHEMERIS_TYPE":"0","MEAN_ANOMALY":"309.3681","DECAY_DATE":null,"RA_OF_ASC_NODE":"141.0240"},{"MEAN_ANOMALY":"306.8735","MEAN_MOTION_DOT":"-0.00000183","BSTAR":"0.00000662390000","EPOCH":"2022-12-20T18:35:15.792576","EPHEMERIS_TYPE":"0","TLE_LINE2":"2 48016  53.0553 126.2335 0001749  53.2414 306.8735 15.06406766 98127","MEAN_MOTION_DDOT":"0.0000000000000","CENTER_NAME":"EARTH","RA_OF_ASC_NODE":"126.2335","DECAY_DATE":null,"TIME_SYSTEM":"UTC","FILE":"3714012","GP_ID":"221041944","LAUNCH_DATE":"2021-03-24","NORAD_CAT_ID":"48016","MEAN_MOTION":"15.06406766","REF_FRAME":"TEME","TLE_LINE1":"1 48016U 21024AR  22354.77448834 -.00000183  00000-0  66239-5 0  9993","PERIOD":"95.592","RCS_SIZE":"LARGE","COUNTRY_CODE":"US","ARG_OF_PERICENTER":"53.2414","SITE":"AFETR","MEAN_ELEMENT_THEORY":"SGP4","OBJECT_ID":"2021-024AR","REV_AT_EPOCH":"9812","SEMIMAJOR_AXIS":"6925.328","CLASSIFICATION_TYPE":"U","OBJECT_TYPE":"PAYLOAD","OBJECT_NAME":"STARLINK-2284","ECCENTRICITY":"0.00017490","ELEMENT_SET_NO":"999","APOAPSIS":"548.404","INCLINATION":"53.0553","PERIAPSIS":"545.982"},{"RA_OF_ASC_NODE":"197.1663","DECAY_DATE":null,"MEAN_ANOMALY":"299.8382","MEAN_MOTION_DOT":"0.00000361","EPOCH":"2022-12-20T13:34:05.097792","BSTAR":"0.00004313900000","EPHEMERIS_TYPE":"0","TLE_LINE2":"2 48018  53.0528 197.1663 0001377  60.2744 299.8382 15.06388433 97659","MEAN_MOTION_DDOT":"0.0000000000000","CENTER_NAME":"EARTH","MEAN_MOTION":"15.06388433","REF_FRAME":"TEME","TIME_SYSTEM":"UTC","FILE":"3713130","GP_ID":"221025763","LAUNCH_DATE":"2021-03-24","NORAD_CAT_ID":"48018","MEAN_ELEMENT_THEORY":"SGP4","OBJECT_ID":"2021-024AT","REV_AT_EPOCH":"9765","SEMIMAJOR_AXIS":"6925.384","PERIOD":"95.593","TLE_LINE1":"1 48018U 21024AT  22354.56533678  .00000361  00000-0  43139-4 0  9993","RCS_SIZE":"LARGE","COUNTRY_CODE":"US","SITE":"AFETR","ARG_OF_PERICENTER":"60.2744","APOAPSIS":"548.203","INCLINATION":"53.0528","PERIAPSIS":"546.295","CLASSIFICATION_TYPE":"U","OBJECT_TYPE":"PAYLOAD","OBJECT_NAME":"STARLINK-2282","ELEMENT_SET_NO":"999","ECCENTRICITY":"0.00013770"},{"SITE":"AFETR","ARG_OF_PERICENTER":"74.8238","COUNTRY_CODE":"US","RCS_SIZE":"LARGE","PERIOD":"95.593","TLE_LINE1":"1 48019U 21024AU  22354.91271277  .00001459  00000-0  11688-3 0  9999","SEMIMAJOR_AXIS":"6925.373","REV_AT_EPOCH":"9732","OBJECT_ID":"2021-024AU","MEAN_ELEMENT_THEORY":"SGP4","ELEMENT_SET_NO":"999","ECCENTRICITY":"0.00014940","OBJECT_NAME":"STARLINK-2285","OBJECT_TYPE":"PAYLOAD","CLASSIFICATION_TYPE":"U","PERIAPSIS":"546.203","INCLINATION":"53.0552","APOAPSIS":"548.273","CENTER_NAME":"EARTH","MEAN_MOTION_DDOT":"0.0000000000000","TLE_LINE2":"2 48019  53.0552 185.3854 0001494  74.8238 285.2917 15.06392040 97323","EPHEMERIS_TYPE":"0","MEAN_MOTION_DOT":"0.00001459","BSTAR":"0.00011688000000","EPOCH":"2022-12-20T21:54:18.383328","MEAN_ANOMALY":"285.2917","DECAY_DATE":null,"RA_OF_ASC_NODE":"185.3854","LAUNCH_DATE":"2021-03-24","NORAD_CAT_ID":"48019","GP_ID":"221041952","FILE":"3714013","TIME_SYSTEM":"UTC","REF_FRAME":"TEME","MEAN_MOTION":"15.06392040"}];
